[{"OBJECT_NAME":"STARLINK-34470","OBJECT_ID":"2025-142H","EPOCH":"2026-03-09T22:45:07.894656","MEAN_MOTION":14.98329357,"ECCENTRICITY":0.00025936,"INCLINATION":70.0014,"RA_OF_ASC_NODE":313.6141,"ARG_OF_PERICENTER":265.5374,"MEAN_ANOMALY":94.5489,"EPHEMERIS_TYPE":0,"CLASSIFICATION_TYPE":"U","NORAD_CAT_ID":64703,"ELEMENT_SET_NO":999,"REV_AT_EPOCH":3950,"BSTAR":0.00061597717,"MEAN_MOTION_DOT":7.264e-5,"MEAN_MOTION_DDOT":0},{"OBJECT_NAME":"RAPIDEYE 5","OBJECT_ID":"2008-040B","EPOCH":"2026-03-09T15:17:22.403904","MEAN_MOTION":15.02179038,"ECCENTRICITY":0.0014834,"INCLINATION":97.3944,"RA_OF_ASC_NODE":91.3825,"ARG_OF_PERICENTER":86.9831,"MEAN_ANOMALY":273.3091,"EPHEMERIS_TYPE":0,"CLASSIFICATION_TYPE":"U","NORAD_CAT_ID":33313,"ELEMENT_SET_NO":999,"REV_AT_EPOCH":95055,"BSTAR":0.00014028,"MEAN_MOTION_DOT":1.794e-5,"MEAN_MOTION_DDOT":0}]
